NORAD_CAT_ID,OBJECT_NAME,OBJECT_TYPE,EPOCH,MEAN_MOTION,ECCENTRICITY,INCLINATION,RA_OF_ASC_NODE,ARG_OF_PERICENTER,MEAN_ANOMALY,BSTAR,MEAN_MOTION_DOT,MEAN_MOTION_DDOT,TLE_LINE0,TLE_LINE1,TLE_LINE2,SEMIMAJOR_AXIS,PERIOD,APOGEE,PERIGEE,DECAYED
51891.0,STARLINK-3549,PAYLOAD,2023-02-15 22:37:48,15.08833256,0.0001166,53.2158,336.8855,83.5752,276.5373,9.5235e-05,1.228e-05,0.0,0 STARLINK-3549,1 51891U 22022AR  23046.94292218  .00001228  00000-0  95235-4 0  9995,2 51891  53.2158 336.8855 0001166  83.5752 276.5373 15.08833256 54555,6917.901,95.438,540.573,538.959,0.0
51891.0,STARLINK-3549,PAYLOAD,2023-02-16 01:48:34,15.08842201,0.0001318,53.2159,336.2921,82.2142,277.8999,0.0023058,0.00036602,0.0,0 STARLINK-3549,1 51891U 22022AR  23047.07540401  .00036602  00000-0  23058-2 0  9996,2 51891  53.2159 336.2921 0001318  82.2142 277.8999 15.08842201 54572,6917.874,95.437,540.65,538.827,0.0
51891.0,STARLINK-3549,PAYLOAD,2023-02-17 04:50:07,15.0887954,0.0001109,53.2159,331.237,82.6512,277.4606,0.0016554,0.00026184,0.0,0 STARLINK-3549,1 51891U 22022AR  23048.20147758  .00026184  00000-0  16554-2 0  9997,2 51891  53.2159 331.2370 0001109  82.6512 277.4606 15.08879540 54744,6917.76,95.435,540.392,538.857,0.0
51891.0,STARLINK-3549,PAYLOAD,2023-02-17 11:11:40,15.08841276,0.0001962,53.2168,330.0482,62.7965,297.3227,-0.00022604,-3.884e-05,0.0,0 STARLINK-3549,1 51891U 22022AR  23048.46644458 -.00003884  00000-0 -22604-3 0  9992,2 51891  53.2168 330.0482 0001962  62.7965 297.3227 15.08841276 54782,6917.876,95.437,541.099,538.384,0.0
51891.0,STARLINK-3549,PAYLOAD,2023-02-17 23:54:47,15.08807615,0.0001215,53.2168,327.6697,69.847,290.2652,0.00086988,0.00013571,0.0,0 STARLINK-3549,1 51891U 22022AR  23048.99637755  .00013571  00000-0  86988-3 0  9999,2 51891  53.2168 327.6697 0001215  69.8470 290.2652 15.08807615 54864,6917.979,95.44,540.685,539.004,0.0
51891.0,STARLINK-3549,PAYLOAD,2023-02-18 11:02:29,15.08839234,0.0001328,53.2171,325.5882,67.9977,292.1156,0.0021172,0.00033567,0.0,0 STARLINK-3549,1 51891U 22022AR  23049.46006322  .00033567  00000-0  21172-2 0  9992,2 51891  53.2171 325.5882 0001328  67.9977 292.1156 15.08839234 54937,6917.883,95.438,540.666,538.829,0.0
51891.0,STARLINK-3549,PAYLOAD,2023-02-19 10:53:14,15.08883124,9.99e-05,53.2151,321.1295,75.2831,284.8272,0.0010652,0.00016725,0.0,0 STARLINK-3549,1 51891U 22022AR  23050.45364525  .00016725  00000-0  10652-2 0  9993,2 51891  53.2151 321.1295 0000999  75.2831 284.8272 15.08883124 55080,6917.749,95.435,540.305,538.922,0.0
51891.0,STARLINK-3549,PAYLOAD,2023-02-19 23:36:19,15.0885578,0.0001661,53.2168,318.7475,76.0625,284.0552,1.0133e-05,-1.27e-06,0.0,0 STARLINK-3549,1 51891U 22022AR  23050.98356430 -.00000127  00000-0  10133-4 0  9993,2 51891  53.2168 318.7475 0001661  76.0625 284.0552 15.08855780 55166,6917.832,95.437,540.846,538.548,0.0
51891.0,STARLINK-3549,PAYLOAD,2023-02-20 10:44:01,15.08857908,0.0001164,53.2148,316.6657,85.3372,274.7753,0.00061634,9.54e-05,0.0,0 STARLINK-3549,1 51891U 22022AR  23051.44724069  .00009540  00000-0  61634-3 0  9990,2 51891  53.2148 316.6657 0001164  85.3372 274.7753 15.08857908 55234,6917.826,95.436,540.496,538.885,0.0
51891.0,STARLINK-3549,PAYLOAD,2023-02-20 23:27:06,15.08847664,0.0001108,53.2151,314.287,90.1256,269.9864,0.00035928,5.436e-05,0.0,0 STARLINK-3549,1 51891U 22022AR  23051.97716246  .00005436  00000-0  35928-3 0  9993,2 51891  53.2151 314.2870 0001108  90.1256 269.9864 15.08847664 55318,6917.857,95.437,540.488,538.955,0.0
51891.0,STARLINK-3549,PAYLOAD,2023-02-21 10:34:49,15.08843984,8.14e-05,53.2143,312.2084,69.7718,290.3361,0.00055706,8.59e-05,0.0,0 STARLINK-3549,1 51891U 22022AR  23052.44084508  .00008590  00000-0  55706-3 0  9995,2 51891  53.2143 312.2084 0000814  69.7718 290.3361 15.08843984 55380,6917.868,95.437,540.296,539.17,0.0
51891.0,STARLINK-3549,PAYLOAD,2023-02-22 02:28:40,15.08846535,0.0001307,53.2144,309.2287,90.3913,269.7229,0.00035911,5.433e-05,0.0,0 STARLINK-3549,1 51891U 22022AR  23053.10324584  .00005433  00000-0  35911-3 0  9999,2 51891  53.2144 309.2287 0001307  90.3913 269.7229 15.08846535 55486,6917.86,95.437,540.63,538.821,0.0
51891.0,STARLINK-3549,PAYLOAD,2023-02-22 16:47:10,15.08807361,8.78e-05,53.2138,306.5523,77.2731,282.8359,-0.00030873,-5.193e-05,0.0,0 STARLINK-3549,1 51891U 22022AR  23053.69942700 -.00005193  00000-0 -30873-3 0  9996,2 51891  53.2138 306.5523 0000878  77.2731 282.8359 15.08807361 55570,6917.98,95.44,540.453,539.238,0.0
51891.0,STARLINK-3549,PAYLOAD,2023-02-22 21:33:19,15.08819219,0.0001864,53.2144,305.664,107.0371,253.0826,-1.4847e-05,-5.24e-06,0.0,0 STARLINK-3549,1 51891U 22022AR  23053.89814760 -.00000524  00000-0 -14847-4 0  9999,2 51891  53.2144 305.6640 0001864 107.0371 253.0826 15.08819219 55603,6917.944,95.439,541.098,538.519,0.0
51891.0,STARLINK-3549,PAYLOAD,2023-02-23 03:54:52,15.08832408,0.0001227,53.2145,304.4735,95.4551,264.6581,0.0013288,0.00020919,0.0,0 STARLINK-3549,1 51891U 22022AR  23054.16311100  .00020919  00000-0  13288-2 0  9994,2 51891  53.2145 304.4735 0001227  95.4551 264.6581 15.08832408 55644,6917.904,95.438,540.617,538.92,0.0
51891.0,STARLINK-3549,PAYLOAD,2023-02-23 19:48:43,15.08872137,0.00012,53.2143,301.4996,96.9837,263.1291,0.0018029,0.00028547,0.0,0 STARLINK-3549,1 51891U 22022AR  23054.82550531  .00028547  00000-0  18029-2 0  9993,2 51891  53.2143 301.4996 0001200  96.9837 263.1291 15.08872137 55748,6917.782,95.436,540.477,538.817,0.0
51891.0,STARLINK-3549,PAYLOAD,2023-02-23 22:59:29,15.08882528,0.0001227,53.2144,300.9048,97.3341,262.779,0.0019537,0.00030978,0.0,0 STARLINK-3549,1 51891U 22022AR  23054.95798159  .00030978  00000-0  19537-2 0  9993,2 51891  53.2144 300.9048 0001227  97.3341 262.7790 15.08882528 55761,6917.75,95.435,540.464,538.767,0.0
51891.0,STARLINK-3549,PAYLOAD,2023-02-24 16:28:43,15.08870794,0.0001398,53.2145,297.6331,83.5963,276.5189,0.0010646,0.0001671,0.0,0 STARLINK-3549,1 51891U 22022AR  23055.68661473  .00016710  00000-0  10646-2 0  9992,2 51891  53.2145 297.6331 0001398  83.5963 276.5189 15.08870794 55874,6917.786,95.436,540.618,538.684,0.0
51891.0,STARLINK-3549,PAYLOAD,2023-02-24 19:39:29,15.08853364,0.0001113,53.2145,297.0387,81.2793,278.8325,0.00090202,0.00014102,0.0,0 STARLINK-3549,1 51891U 22022AR  23055.81909398  .00014102  00000-0  90202-3 0  9998,2 51891  53.2145 297.0387 0001113  81.2793 278.8325 15.08853364 55893,6917.84,95.437,540.474,538.935,0.0
51891.0,STARLINK-3549,PAYLOAD,2023-02-24 22:50:15,15.08852606,0.000116,53.2146,296.4441,76.4756,283.6366,0.0013029,0.00020516,0.0,0 STARLINK-3549,1 51891U 22022AR  23055.95157330  .00020516  00000-0  13029-2 0  9991,2 51891  53.2146 296.4441 0001160  76.4756 283.6366 15.08852606 55915,6917.842,95.437,540.509,538.904,0.0
51891.0,STARLINK-3549,PAYLOAD,2023-02-25 02:01:02,15.08858674,0.000115,53.2146,295.8488,73.5089,286.6029,0.0011118,0.0001746,0.0,0 STARLINK-3549,1 51891U 22022AR  23056.08405201  .00017460  00000-0  11118-2 0  9990,2 51891  53.2146 295.8488 0001150  73.5089 286.6029 15.08858674 55937,6917.823,95.436,540.484,538.893,0.0
51891.0,STARLINK-3549,PAYLOAD,2023-02-25 22:41:03,15.08847984,0.0001126,53.2144,291.9827,83.5872,276.5248,0.00093449,0.00014619,0.0,0 STARLINK-3549,1 51891U 22022AR  23056.94517420  .00014619  00000-0  93449-3 0  9993,2 51891  53.2144 291.9827 0001126  83.5872 276.5248 15.08847984 56061,6917.856,95.437,540.5,538.942,0.0
51891.0,STARLINK-3549,PAYLOAD,2023-02-26 01:51:49,15.08857328,0.0001067,53.2143,291.3868,76.4946,283.6165,0.0010612,0.00016649,0.0,0 STARLINK-3549,1 51891U 22022AR  23057.07765220  .00016649  00000-0  10612-2 0  9996,2 51891  53.2143 291.3868 0001067  76.4946 283.6165 15.08857328 56088,6917.827,95.436,540.431,538.954,0.0
51891.0,STARLINK-3549,PAYLOAD,2023-02-26 16:10:17,15.08848717,0.0001255,53.2143,288.71,81.2716,278.8419,0.0006505,0.00010082,0.0,0 STARLINK-3549,1 51891U 22022AR  23057.67381052  .00010082  00000-0  65050-3 0  9991,2 51891  53.2143 288.7100 0001255  81.2716 278.8419 15.08848717 56175,6917.854,95.437,540.587,538.851,0.0
51891.0,STARLINK-3549,PAYLOAD,2023-02-26 22:31:49,15.08859002,0.0001107,53.2141,287.521,84.4492,275.6627,0.00068859,0.00010694,0.0,0 STARLINK-3549,1 51891U 22022AR  23057.93876623  .00010694  00000-0  68859-3 0  9992,2 51891  53.2141 287.5210 0001107  84.4492 275.6627 15.08859002 56214,6917.822,95.436,540.453,538.922,0.0
51891.0,STARLINK-3549,PAYLOAD,2023-02-27 00:07:12,15.08860267,0.0001074,53.2144,287.2237,82.8859,277.2256,0.0010299,0.0001615,0.0,0 STARLINK-3549,1 51891U 22022AR  23058.00500678  .00016150  00000-0  10299-2 0  9992,2 51891  53.2144 287.2237 0001074  82.8859 277.2256 15.08860267 56227,6917.818,95.436,540.426,538.94,0.0
51891.0,STARLINK-3549,PAYLOAD,2023-02-27 22:22:35,15.0887136,0.0001112,53.2138,283.06,74.5682,285.5432,0.0012715,0.00020023,0.0,0 STARLINK-3549,1 51891U 22022AR  23058.93235991  .00020023  00000-0  12715-2 0  9996,2 51891  53.2138 283.0600 0001112  74.5682 285.5432 15.08871360 56362,6917.785,95.436,540.419,538.88,0.0
51891.0,STARLINK-3549,PAYLOAD,2023-02-28 14:16:28,15.08828971,0.0001511,53.2143,280.0877,95.4942,264.6222,0.00029831,4.461e-05,0.0,0 STARLINK-3549,1 51891U 22022AR  23059.59476948  .00004461  00000-0  29831-3 0  9994,2 51891  53.2143 280.0877 0001511  95.4942 264.6222 15.08828971 56461,6917.914,95.438,540.824,538.734,0.0
51891.0,STARLINK-3549,PAYLOAD,2023-02-28 22:13:24,15.08814661,0.0001464,53.214,278.5998,72.2126,287.9025,0.00023412,3.438e-05,0.0,0 STARLINK-3549,1 51891U 22022AR  23059.92598003  .00003438  00000-0  23412-3 0  9990,2 51891  53.2140 278.5998 0001464  72.2126 287.9025 15.08814661 56514,6917.958,95.439,540.836,538.81,0.0
51891.0,STARLINK-3549,PAYLOAD,2023-03-01 20:28:48,15.08838165,0.0001478,53.2144,274.4357,76.6099,283.5058,0.00042214,6.436e-05,0.0,0 STARLINK-3549,1 51891U 22022AR  23060.85334449  .00006436  00000-0  42214-3 0  9998,2 51891  53.2144 274.4357 0001478  76.6099 283.5058 15.08838165 56652,6917.886,95.438,540.773,538.729,0.0
